{"type":"FeatureCollection","features":[{"type":"Feature","geometry":{"type":"Polygon","coordinates":[[[-93.228,45.116],[-93.221,45.112],[-93.228,45.111],[-93.227,45.075],[-93.219,45.075],[-93.218,45.064],[-93.186,45.067],[-93.183,45.05],[-93.188,45.036],[-93.208,45.036],[-93.208,45.006],[-93.147,45.01],[-93.136,45.006],[-93.141,44.992],[-93.106,44.992],[-93.107,45.079],[-93.117,45.079],[-93.127,45.101],[-93.127,45.108],[-93.107,45.112],[-93.107,45.124],[-93.228,45.125],[-93.228,45.116]]]},"properties":{"SLDU":"040","NAME":"State Senate District 40","GEOID":"27040","district":"40","name":"State Senate District 40"}},{"type":"Feature","geometry":{"type":"Polygon","coordinates":[[[-93.106,45.043],[-93.106,44.992],[-93.005,44.992],[-93.0,44.97],[-92.985,44.976],[-92.985,44.949],[-92.934,44.949],[-92.934,44.963],[-92.944,44.963],[-92.944,45.013],[-92.954,45.021],[-92.945,45.047],[-92.955,45.047],[-92.965,45.032],[-93.087,45.036],[-93.087,45.043],[-93.106,45.043]]]},"properties":{"SLDU":"044","NAME":"State Senate District 44","GEOID":"27044","district":"44","name":"State Senate District 44"}},{"type":"Feature","geometry":{"type":"Polygon","coordinates":[[[-93.646,44.544],[-93.524,44.544],[-93.525,44.457],[-93.402,44.457],[-93.403,44.371],[-92.919,44.371],[-92.914,44.63],[-92.732,44.629],[-92.732,44.714],[-92.813,44.747],[-92.813,44.717],[-92.833,44.717],[-92.833,44.71],[-92.823,44.71],[-92.833,44.702],[-92.843,44.702],[-92.843,44.71],[-92.873,44.71],[-92.873,44.717],[-92.974,44.717],[-92.975,44.772],[-93.035,44.776],[-93.035,44.739],[-93.107,44.739],[-93.136,44.732],[-93.137,44.723],[-93.157,44.717],[-93.156,44.689],[-93.207,44.689],[-93.208,44.631],[-93.157,44.631],[-93.157,44.544],[-93.4,44.544],[-93.4,44.631],[-93.644,44.631],[-93.646,44.544]]]},"properties":{"SLDU":"058","NAME":"State Senate District 58","GEOID":"27058","district":"58","name":"State Senate District 58"}},{"type":"Feature","geometry":{"type":"Polygon","coordinates":[[[-93.288,44.923],[-93.275,44.916],[-93.247,44.918],[-93.247,44.948],[-93.238,44.948],[-93.252,44.966],[-93.288,44.965],[-93.288,44.923]]]},"properties":{"SLDU":"062","NAME":"State Senate District 62","GEOID":"27062","district":"62","name":"State Senate District 62"}},{"type":"Feature","geometry":{"type":"Polygon","coordinates":[[[-94.128,43.508],[-94.128,43.5],[-92.569,43.5],[-92.57,43.701],[-92.56,43.703],[-92.559,43.71],[-92.57,43.711],[-92.57,43.834],[-92.689,43.834],[-92.689,43.849],[-93.046,43.848],[-93.046,44.023],[-93.768,44.022],[-93.768,43.848],[-94.006,43.848],[-94.008,43.587],[-94.128,43.587],[-94.128,43.508]]]},"properties":{"SLDU":"023","NAME":"State Senate District 23","GEOID":"27023","district":"23","name":"State Senate District 23"}},{"type":"Feature","geometry":{"type":"Polygon","coordinates":[[[-96.037,45.151],[-96.0,45.12],[-96.0,45.112],[-95.882,45.033],[-95.88,45.024],[-95.87,45.025],[-95.861,45.007],[-95.825,44.992],[-95.831,44.99],[-95.824,44.986],[-95.823,44.965],[-95.811,44.961],[-95.804,44.949],[-95.744,44.945],[-95.719,44.921],[-95.721,44.907],[-95.689,44.902],[-95.679,44.909],[-95.674,44.897],[-95.65,44.891],[-95.655,44.885],[-95.642,44.875],[-95.633,44.878],[-95.62,44.867],[-95.615,44.851],[-95.574,44.84],[-95.564,44.826],[-95.483,44.804],[-95.483,44.789],[-95.493,44.789],[-95.524,44.805],[-95.498,44.789],[-95.525,44.783],[-95.522,44.776],[-95.531,44.774],[-95.512,44.765],[-95.506,44.773],[-95.495,44.77],[-95.49,44.751],[-95.477,44.756],[-95.458,44.741],[-95.442,44.744],[-95.416,44.735],[-95.398,44.724],[-95.398,44.714],[-95.38,44.711],[-95.374,44.702],[-95.314,44.692],[-95.312,44.676],[-95.293,44.661],[-95.244,44.667],[-95.186,44.624],[-95.151,44.615],[-95.132,44.596],[-95.119,44.595],[-95.1,44.578],[-95.088,44.579],[-95.098,44.572],[-95.068,44.572],[-95.05,44.558],[-95.026,44.553],[-95.024,44.546],[-95.012,44.55],[-95.017,44.543],[-94.989,44.546],[-94.977,44.535],[-94.97,44.54],[-94.968,44.533],[-94.944,44.526],[-94.938,44.53],[-94.938,44.524],[-94.92,44.517],[-94.881,44.517],[-94.874,44.499],[-94.815,44.484],[-94.81,44.471],[-94.798,44.469],[-94.806,44.466],[-94.79,44.456],[-94.624,44.456],[-94.629,44.717],[-94.498,44.717],[-94.502,45.121],[-94.488,45.121],[-94.503,45.127],[-94.501,45.239],[-94.383,45.239],[-94.384,45.327],[-94.763,45.326],[-94.763,45.413],[-95.255,45.413],[-95.255,45.239],[-95.246,45.239],[-95.246,45.152],[-96.037,45.151]]]},"properties":{"SLDU":"016","NAME":"State Senate District 16","GEOID":"27016","district":"16","name":"State Senate District 16"}},{"type":"Feature","geometry":{"type":"Polygon","coordinates":[[[-93.429,44.929],[-93.422,44.906],[-93.401,44.906],[-93.402,44.892],[-93.35,44.89],[-93.35,44.92],[-93.329,44.931],[-93.329,44.966],[-93.401,44.971],[-93.401,44.979],[-93.41,44.979],[-93.401,44.964],[-93.399,44.941],[-93.411,44.94],[-93.411,44.95],[-93.425,44.947],[-93.416,44.939],[-93.429,44.929]]]},"properties":{"SLDU":"046","NAME":"State Senate District 46","GEOID":"27046","district":"46","name":"State Senate District 46"}},{"type":"Feature","geometry":{"type":"Polygon","coordinates":[[[-93.005,44.97],[-93.004,44.891],[-92.98,44.895],[-92.974,44.889],[-92.974,44.883],[-92.984,44.887],[-92.984,44.862],[-92.862,44.862],[-92.863,44.949],[-92.985,44.949],[-92.985,44.976],[-93.0,44.97],[-93.004,44.981],[-93.005,44.97]]]},"properties":{"SLDU":"047","NAME":"State Senate District 47","GEOID":"27047","district":"47","name":"State Senate District 47"}},{"type":"Feature","geometry":{"type":"Polygon","coordinates":[[[-94.383,45.273],[-94.379,45.152],[-94.135,45.152],[-94.134,44.979],[-93.768,44.978],[-93.762,45.081],[-93.717,45.087],[-93.728,45.088],[-93.724,45.108],[-93.746,45.104],[-93.743,45.097],[-93.752,45.094],[-93.766,45.107],[-93.762,45.093],[-93.777,45.097],[-93.766,45.091],[-93.792,45.098],[-93.794,45.087],[-93.831,45.086],[-93.839,45.076],[-93.855,45.076],[-93.863,45.091],[-93.891,45.108],[-93.89,45.151],[-93.874,45.144],[-93.874,45.138],[-93.864,45.151],[-93.766,45.151],[-93.766,45.238],[-93.704,45.238],[-93.704,45.26],[-93.715,45.267],[-93.705,45.267],[-93.704,45.298],[-93.77,45.298],[-93.805,45.312],[-93.831,45.335],[-93.868,45.34],[-93.915,45.383],[-93.944,45.385],[-93.955,45.378],[-93.996,45.402],[-94.009,45.391],[-94.006,45.404],[-94.026,45.405],[-94.048,45.423],[-94.057,45.421],[-94.086,45.38],[-94.081,45.367],[-94.096,45.352],[-94.092,45.343],[-94.161,45.301],[-94.176,45.303],[-94.187,45.318],[-94.213,45.317],[-94.257,45.306],[-94.261,45.284],[-94.383,45.283],[-94.383,45.273]]]},"properties":{"SLDU":"029","NAME":"State Senate District 29","GEOID":"27029","district":"29","name":"State Senate District 29"}},{"type":"Feature","geometry":{"type":"Polygon","coordinates":[[[-92.573,44.079],[-92.558,44.074],[-92.558,44.043],[-92.488,44.043],[-92.483,44.001],[-92.419,44.012],[-92.419,44.021],[-92.319,44.021],[-92.319,44.108],[-92.439,44.108],[-92.438,44.195],[-92.549,44.195],[-92.556,44.184],[-92.546,44.183],[-92.562,44.181],[-92.559,44.175],[-92.543,44.177],[-92.558,44.174],[-92.558,44.079],[-92.573,44.079]]]},"properties":{"SLDU":"025","NAME":"State Senate District 25","GEOID":"27025","district":"25","name":"State Senate District 25"}},{"type":"Feature","geometry":{"type":"Polygon","coordinates":[[[-93.421,44.985],[-93.421,44.979],[-93.401,44.979],[-93.401,44.971],[-93.329,44.966],[-93.329,44.977],[-93.318,44.977],[-93.319,45.04],[-93.34,45.04],[-93.34,45.066],[-93.401,45.066],[-93.401,45.007],[-93.411,45.008],[-93.403,44.999],[-93.421,44.985]]]},"properties":{"SLDU":"043","NAME":"State Senate District 43","GEOID":"27043","district":"43","name":"State Senate District 43"}},{"type":"Feature","geometry":{"type":"Polygon","coordinates":[[[-94.787,44.452],[-94.766,44.443],[-94.749,44.45],[-94.727,44.434],[-94.706,44.434],[-94.694,44.426],[-94.701,44.412],[-94.694,44.411],[-94.694,44.418],[-94.685,44.412],[-94.697,44.409],[-94.695,44.403],[-94.676,44.408],[-94.67,44.403],[-94.676,44.396],[-94.655,44.401],[-94.655,44.393],[-94.64,44.397],[-94.642,44.39],[-94.628,44.391],[-94.623,44.382],[-94.597,44.385],[-94.578,44.371],[-94.555,44.376],[-94.546,44.364],[-94.518,44.37],[-94.52,44.36],[-94.501,44.352],[-94.494,44.361],[-94.483,44.345],[-94.452,44.333],[-94.453,44.323],[-94.441,44.319],[-94.452,44.317],[-94.443,44.309],[-94.432,44.312],[-94.442,44.306],[-94.432,44.296],[-94.425,44.299],[-94.432,44.293],[-94.414,44.287],[-94.412,44.274],[-94.32,44.251],[-94.32,44.243],[-94.3,44.243],[-94.297,44.234],[-94.292,44.24],[-94.287,44.228],[-94.279,44.233],[-94.273,44.224],[-94.269,44.231],[-94.238,44.209],[-94.224,44.217],[-94.223,44.206],[-94.213,44.201],[-94.142,44.194],[-94.125,44.18],[-94.111,44.18],[-94.114,44.173],[-94.1,44.175],[-94.104,44.17],[-94.085,44.161],[-94.035,44.157],[-94.043,44.128],[-94.029,44.139],[-94.019,44.123],[-93.989,44.123],[-93.979,44.138],[-93.959,44.133],[-93.954,44.145],[-93.889,44.138],[-93.889,44.152],[-93.873,44.147],[-93.869,44.178],[-93.889,44.171],[-93.889,44.239],[-93.959,44.239],[-93.959,44.273],[-93.955,44.29],[-93.947,44.29],[-93.955,44.29],[-93.96,44.307],[-93.945,44.339],[-93.933,44.345],[-93.956,44.358],[-93.953,44.366],[-93.962,44.364],[-93.955,44.375],[-93.963,44.383],[-93.952,44.386],[-93.966,44.391],[-93.95,44.393],[-93.954,44.41],[-93.94,44.413],[-93.929,44.443],[-93.935,44.457],[-94.787,44.452]]]},"properties":{"SLDU":"018","NAME":"State Senate District 18","GEOID":"27018","district":"18","name":"State Senate District 18"}},{"type":"Feature","geometry":{"type":"Polygon","coordinates":[[[-92.269,46.691],[-92.255,46.672],[-92.236,46.676],[-92.226,46.67],[-92.226,46.653],[-92.212,46.65],[-92.202,46.655],[-92.204,46.667],[-92.176,46.686],[-92.183,46.696],[-92.205,46.698],[-92.205,46.704],[-92.189,46.718],[-92.147,46.716],[-92.143,46.735],[-92.117,46.749],[-92.089,46.749],[-92.02,46.704],[-91.796,46.795],[-91.795,46.929],[-91.816,46.915],[-91.839,46.915],[-91.92,46.871],[-91.921,46.881],[-91.963,46.88],[-91.974,46.866],[-92.048,46.866],[-92.048,46.877],[-92.059,46.876],[-92.059,46.866],[-92.09,46.866],[-92.09,46.851],[-92.164,46.851],[-92.156,46.862],[-92.161,46.866],[-92.175,46.866],[-92.176,46.851],[-92.196,46.851],[-92.196,46.862],[-92.212,46.862],[-92.201,46.851],[-92.212,46.837],[-92.192,46.837],[-92.196,46.831],[-92.189,46.83],[-92.175,46.837],[-92.175,46.764],[-92.217,46.764],[-92.212,46.757],[-92.217,46.721],[-92.238,46.721],[-92.238,46.706],[-92.254,46.71],[-92.259,46.69],[-92.269,46.691]]]},"properties":{"SLDU":"008","NAME":"State Senate District 8","GEOID":"27008","district":"8","name":"State Senate District 8"}},{"type":"Feature","geometry":{"type":"Polygon","coordinates":[[[-96.453,45.269],[-96.452,44.631],[-96.093,44.63],[-96.093,44.544],[-96.08,44.543],[-96.079,44.197],[-95.101,44.195],[-95.1,44.108],[-94.25,44.108],[-94.249,44.141],[-94.242,44.141],[-94.229,44.141],[-94.226,44.123],[-94.179,44.123],[-94.181,44.109],[-94.128,44.109],[-94.129,44.185],[-94.143,44.194],[-94.213,44.201],[-94.223,44.206],[-94.224,44.217],[-94.238,44.209],[-94.269,44.231],[-94.273,44.224],[-94.279,44.233],[-94.287,44.228],[-94.292,44.24],[-94.297,44.234],[-94.3,44.243],[-94.32,44.243],[-94.32,44.251],[-94.412,44.274],[-94.414,44.287],[-94.432,44.293],[-94.425,44.299],[-94.432,44.296],[-94.442,44.306],[-94.432,44.312],[-94.443,44.309],[-94.452,44.317],[-94.441,44.319],[-94.453,44.323],[-94.452,44.333],[-94.483,44.345],[-94.492,44.36],[-94.499,44.361],[-94.501,44.352],[-94.52,44.36],[-94.518,44.37],[-94.546,44.364],[-94.556,44.376],[-94.578,44.371],[-94.597,44.385],[-94.623,44.382],[-94.628,44.391],[-94.642,44.39],[-94.64,44.397],[-94.677,44.397],[-94.67,44.403],[-94.679,44.409],[-94.694,44.402],[-94.697,44.409],[-94.685,44.411],[-94.69,44.417],[-94.701,44.412],[-94.695,44.428],[-94.727,44.434],[-94.748,44.45],[-94.766,44.443],[-94.786,44.451],[-94.781,44.458],[-94.806,44.465],[-94.798,44.469],[-94.81,44.471],[-94.815,44.484],[-94.873,44.499],[-94.881,44.517],[-94.92,44.517],[-94.938,44.524],[-94.938,44.53],[-94.944,44.526],[-94.968,44.533],[-94.97,44.54],[-94.977,44.535],[-94.989,44.546],[-95.017,44.543],[-95.012,44.55],[-95.024,44.546],[-95.026,44.553],[-95.05,44.558],[-95.068,44.572],[-95.098,44.572],[-95.088,44.579],[-95.1,44.578],[-95.119,44.595],[-95.132,44.596],[-95.151,44.615],[-95.186,44.624],[-95.244,44.667],[-95.293,44.661],[-95.312,44.676],[-95.314,44.692],[-95.378,44.703],[-95.38,44.711],[-95.398,44.714],[-95.398,44.724],[-95.416,44.735],[-95.442,44.744],[-95.458,44.741],[-95.477,44.756],[-95.49,44.751],[-95.49,44.764],[-95.505,44.773],[-95.51,44.765],[-95.529,44.771],[-95.522,44.776],[-95.525,44.783],[-95.498,44.789],[-95.524,44.805],[-95.493,44.789],[-95.483,44.789],[-95.483,44.804],[-95.564,44.826],[-95.574,44.84],[-95.615,44.851],[-95.62,44.867],[-95.633,44.878],[-95.642,44.875],[-95.655,44.885],[-95.65,44.891],[-95.674,44.897],[-95.679,44.909],[-95.689,44.902],[-95.721,44.907],[-95.719,44.921],[-95.744,44.945],[-95.804,44.949],[-95.811,44.961],[-95.823,44.965],[-95.824,44.986],[-95.831,44.99],[-95.825,44.992],[-95.861,45.007],[-95.87,45.025],[-95.88,45.024],[-95.882,45.033],[-96.0,45.112],[-96.0,45.12],[-96.043,45.157],[-96.089,45.167],[-96.132,45.192],[-96.173,45.193],[-96.224,45.221],[-96.275,45.223],[-96.289,45.239],[-96.283,45.247],[-96.291,45.249],[-96.376,45.261],[-96.407,45.256],[-96.419,45.268],[-96.453,45.269]]]},"properties":{"SLDU":"015","NAME":"State Senate District 15","GEOID":"27015","district":"15","name":"State Senate District 15"}},{"type":"Feature","geometry":{"type":"Polygon","coordinates":[[[-93.399,44.748],[-93.38,44.746],[-93.399,44.728],[-93.399,44.717],[-93.248,44.717],[-93.248,44.787],[-93.258,44.784],[-93.258,44.79],[-93.266,44.79],[-93.288,44.782],[-93.29,44.8],[-93.336,44.786],[-93.349,44.791],[-93.379,44.785],[-93.385,44.797],[-93.399,44.798],[-93.399,44.748]]]},"properties":{"SLDU":"055","NAME":"State Senate District 55","GEOID":"27055","district":"55","name":"State Senate District 55"}},{"type":"Feature","geometry":{"type":"Polygon","coordinates":[[[-94.763,45.369],[-94.763,45.326],[-94.384,45.327],[-94.383,45.283],[-94.261,45.284],[-94.262,45.298],[-94.253,45.308],[-94.194,45.319],[-94.18,45.313],[-94.175,45.302],[-94.162,45.301],[-94.093,45.342],[-94.096,45.352],[-94.081,45.367],[-94.086,45.38],[-94.057,45.421],[-94.048,45.423],[-94.052,45.435],[-94.08,45.438],[-94.082,45.447],[-94.103,45.456],[-94.138,45.456],[-94.138,45.413],[-94.261,45.414],[-94.26,45.499],[-94.31,45.53],[-94.298,45.537],[-94.316,45.549],[-94.319,45.568],[-94.26,45.555],[-94.258,45.59],[-94.178,45.59],[-94.166,45.574],[-94.135,45.574],[-94.127,45.596],[-94.12,45.587],[-94.122,45.603],[-94.133,45.6],[-94.133,45.607],[-94.117,45.607],[-94.117,45.614],[-94.134,45.619],[-94.134,45.647],[-94.204,45.647],[-94.197,45.671],[-94.183,45.68],[-94.203,45.678],[-94.211,45.702],[-94.224,45.712],[-94.215,45.726],[-94.26,45.742],[-94.272,45.775],[-94.644,45.774],[-94.64,45.412],[-94.763,45.413],[-94.763,45.369]]]},"properties":{"SLDU":"013","NAME":"State Senate District 13","GEOID":"27013","district":"13","name":"State Senate District 13"}},{"type":"Feature","geometry":{"type":"Polygon","coordinates":[[[-93.659,45.194],[-93.648,45.18],[-93.63,45.174],[-93.63,45.153],[-93.402,45.152],[-93.402,45.123],[-93.336,45.121],[-93.341,45.098],[-93.29,45.094],[-93.281,45.087],[-93.282,45.072],[-93.278,45.103],[-93.296,45.122],[-93.266,45.125],[-93.274,45.152],[-93.299,45.129],[-93.359,45.175],[-93.412,45.198],[-93.426,45.215],[-93.485,45.226],[-93.514,45.246],[-93.522,45.247],[-93.529,45.222],[-93.543,45.233],[-93.57,45.219],[-93.593,45.218],[-93.597,45.207],[-93.605,45.213],[-93.625,45.21],[-93.628,45.202],[-93.638,45.21],[-93.659,45.194]]]},"properties":{"SLDU":"034","NAME":"State Senate District 34","GEOID":"27034","district":"34","name":"State Senate District 34"}},{"type":"Feature","geometry":{"type":"Polygon","coordinates":[[[-93.768,44.978],[-93.645,44.979],[-93.646,45.0],[-93.522,45.0],[-93.522,45.08],[-93.481,45.084],[-93.482,45.066],[-93.401,45.066],[-93.402,45.111],[-93.414,45.123],[-93.402,45.123],[-93.402,45.152],[-93.635,45.153],[-93.636,45.145],[-93.683,45.151],[-93.721,45.114],[-93.73,45.097],[-93.728,45.088],[-93.717,45.087],[-93.762,45.081],[-93.768,44.978]]]},"properties":{"SLDU":"037","NAME":"State Senate District 37","GEOID":"27037","district":"37","name":"State Senate District 37"}},{"type":"Feature","geometry":{"type":"Polygon","coordinates":[[[-93.414,45.123],[-93.402,45.111],[-93.401,45.066],[-93.34,45.066],[-93.34,45.04],[-93.319,45.042],[-93.319,45.051],[-93.282,45.051],[-93.281,45.087],[-93.29,45.094],[-93.341,45.098],[-93.336,45.121],[-93.414,45.123]]]},"properties":{"SLDU":"038","NAME":"State Senate District 38","GEOID":"27038","district":"38","name":"State Senate District 38"}},{"type":"Feature","geometry":{"type":"Polygon","coordinates":[[[-93.021,44.787],[-93.013,44.774],[-92.975,44.772],[-92.974,44.717],[-92.873,44.717],[-92.873,44.71],[-92.843,44.71],[-92.843,44.702],[-92.823,44.706],[-92.833,44.717],[-92.813,44.717],[-92.813,44.747],[-92.802,44.746],[-92.808,44.752],[-92.806,44.768],[-92.786,44.792],[-92.766,44.837],[-92.77,44.86],[-92.763,44.874],[-92.775,44.898],[-92.759,44.909],[-92.751,44.937],[-92.755,44.956],[-92.769,44.972],[-92.771,45.001],[-92.762,45.024],[-92.771,45.029],[-92.77,45.018],[-92.778,45.027],[-92.772,45.011],[-92.781,45.0],[-92.782,45.007],[-92.794,45.005],[-92.792,45.022],[-92.807,45.021],[-92.807,45.029],[-92.856,45.026],[-92.854,45.036],[-92.863,45.031],[-92.868,45.108],[-92.914,45.108],[-92.909,45.083],[-92.945,45.089],[-92.945,45.036],[-92.954,45.021],[-92.944,45.013],[-92.944,44.963],[-92.934,44.963],[-92.934,44.949],[-92.863,44.949],[-92.862,44.862],[-92.984,44.862],[-92.984,44.847],[-92.935,44.815],[-92.936,44.81],[-92.965,44.812],[-92.965,44.801],[-92.971,44.801],[-92.984,44.816],[-92.984,44.801],[-92.977,44.8],[-92.984,44.79],[-93.009,44.794],[-93.021,44.787]]]},"properties":{"SLDU":"041","NAME":"State Senate District 41","GEOID":"27041","district":"41","name":"State Senate District 41"}},{"type":"Feature","geometry":{"type":"Polygon","coordinates":[[[-97.239,48.968],[-97.228,48.962],[-97.234,48.948],[-97.214,48.932],[-97.22,48.922],[-97.211,48.916],[-97.211,48.906],[-97.19,48.895],[-97.202,48.892],[-97.199,48.881],[-97.178,48.876],[-97.191,48.864],[-97.179,48.863],[-97.173,48.851],[-97.183,48.847],[-97.174,48.838],[-97.184,48.834],[-97.178,48.823],[-97.19,48.815],[-97.157,48.808],[-97.181,48.798],[-97.163,48.801],[-97.174,48.794],[-97.147,48.781],[-97.159,48.776],[-97.145,48.765],[-97.154,48.754],[-97.138,48.75],[-97.142,48.736],[-97.128,48.732],[-97.137,48.727],[-97.11,48.708],[-97.12,48.701],[-97.09,48.684],[-97.101,48.682],[-97.101,48.668],[-97.109,48.664],[-97.099,48.661],[-97.116,48.645],[-97.109,48.632],[-97.131,48.631],[-97.119,48.619],[-97.134,48.623],[-97.13,48.614],[-97.151,48.612],[-97.134,48.607],[-97.154,48.595],[-97.142,48.593],[-97.144,48.582],[-97.161,48.581],[-97.149,48.57],[-97.175,48.562],[-97.139,48.555],[-97.166,48.549],[-97.141,48.535],[-97.154,48.53],[-97.152,48.52],[-97.127,48.52],[-97.15,48.512],[-97.149,48.501],[-97.132,48.489],[-97.143,48.492],[-97.14,48.485],[-97.163,48.478],[-97.128,48.474],[-97.147,48.473],[-97.143,48.464],[-97.129,48.46],[-97.151,48.441],[-97.125,48.442],[-97.128,48.431],[-97.146,48.431],[-97.123,48.418],[-97.154,48.418],[-97.151,48.413],[-97.14,48.418],[-97.131,48.407],[-97.163,48.393],[-97.152,48.383],[-97.133,48.382],[-97.141,48.378],[-97.138,48.371],[-97.156,48.366],[-97.136,48.352],[-97.14,48.345],[-97.126,48.341],[-97.142,48.326],[-97.116,48.324],[-97.133,48.319],[-97.138,48.31],[-97.124,48.311],[-97.127,48.304],[-97.112,48.296],[-97.128,48.299],[-97.137,48.292],[-97.123,48.291],[-97.117,48.28],[-97.125,48.27],[-97.145,48.269],[-97.123,48.262],[-97.131,48.259],[-97.125,48.25],[-97.147,48.244],[-97.134,48.239],[-97.145,48.234],[-97.121,48.225],[-97.152,48.22],[-97.139,48.222],[-97.118,48.21],[-97.139,48.217],[-97.129,48.208],[-97.141,48.205],[-97.136,48.197],[-97.15,48.183],[-97.136,48.177],[-97.148,48.171],[-97.142,48.16],[-97.121,48.16],[-97.147,48.142],[-97.123,48.14],[-97.133,48.137],[-97.121,48.115],[-97.123,48.107],[-97.102,48.096],[-97.11,48.091],[-97.1,48.086],[-97.104,48.072],[-97.072,48.048],[-97.072,48.019],[-97.063,48.015],[-97.064,47.998],[-97.053,47.99],[-97.062,47.965],[-97.052,47.957],[-97.055,47.948],[-97.018,47.92],[-97.024,47.916],[-97.015,47.907],[-97.025,47.908],[-97.019,47.891],[-97.025,47.885],[-97.018,47.879],[-97.023,47.874],[-97.002,47.868],[-96.998,47.842],[-96.986,47.837],[-96.982,47.83],[-96.987,47.826],[-96.974,47.823],[-96.981,47.822],[-96.979,47.81],[-96.992,47.808],[-96.966,47.8],[-96.957,47.791],[-96.965,47.784],[-96.958,47.786],[-96.956,47.775],[-96.935,47.767],[-96.938,47.761],[-96.929,47.755],[-96.94,47.755],[-96.929,47.75],[-96.933,47.738],[-96.918,47.724],[-96.931,47.716],[-96.92,47.717],[-96.912,47.707],[-96.921,47.7],[-96.912,47.701],[-96.91,47.689],[-96.899,47.69],[-96.896,47.674],[-96.885,47.674],[-96.89,47.67],[-96.882,47.643],[-96.888,47.639],[-96.874,47.628],[-96.88,47.619],[-96.857,47.611],[-96.851,47.599],[-96.859,47.596],[-96.85,47.591],[-96.86,47.575],[-96.852,47.569],[-96.869,47.567],[-96.847,47.566],[-96.862,47.559],[-96.85,47.553],[-96.86,47.546],[-96.845,47.539],[-96.862,47.541],[-96.854,47.536],[-96.871,47.527],[-96.861,47.515],[-96.842,47.516],[-96.854,47.512],[-96.842,47.509],[-96.853,47.507],[-96.849,47.498],[-96.865,47.492],[-96.852,47.486],[-96.869,47.478],[-96.852,47.479],[-96.861,47.473],[-96.854,47.46],[-96.864,47.457],[-96.854,47.455],[-96.856,47.439],[-96.863,47.436],[-96.853,47.432],[-96.872,47.419],[-96.857,47.41],[-96.842,47.411],[-96.853,47.406],[-96.839,47.399],[-96.849,47.394],[-96.84,47.393],[-96.838,47.383],[-96.849,47.382],[-96.844,47.376],[-96.855,47.374],[-96.837,47.372],[-96.858,47.368],[-96.848,47.365],[-96.851,47.357],[-96.837,47.356],[-96.847,47.348],[-96.831,47.339],[-96.846,47.328],[-96.829,47.328],[-96.847,47.316],[-96.831,47.306],[-96.844,47.293],[-96.84,47.276],[-96.848,47.271],[-96.835,47.266],[-96.847,47.262],[-96.836,47.262],[-96.845,47.258],[-96.839,47.256],[-96.844,47.251],[-96.832,47.247],[-96.844,47.24],[-96.837,47.242],[-96.829,47.233],[-96.841,47.233],[-96.831,47.227],[-96.846,47.22],[-96.834,47.222],[-96.837,47.216],[-96.83,47.21],[-96.837,47.207],[-96.827,47.201],[-96.845,47.194],[-96.826,47.191],[-96.836,47.185],[-96.822,47.185],[-96.833,47.177],[-96.819,47.165],[-96.832,47.16],[-96.823,47.156],[-96.841,47.151],[-96.564,47.151],[-96.563,47.064],[-96.194,47.064],[-96.195,47.151],[-96.067,47.152],[-96.068,47.499],[-95.554,47.5],[-95.553,47.674],[-95.579,47.674],[-95.583,48.021],[-95.592,48.021],[-95.593,48.365],[-95.602,48.365],[-95.602,48.539],[-95.343,48.54],[-95.343,48.713],[-95.09,48.713],[-95.091,48.921],[-95.148,48.892],[-95.255,48.884],[-95.301,48.904],[-95.296,48.908],[-95.32,48.929],[-95.323,48.941],[-95.305,48.946],[-95.318,48.952],[-95.326,48.97],[-95.32,48.999],[-97.229,49.0],[-97.239,48.968]]]},"properties":{"SLDU":"001","NAME":"State Senate District 1","GEOID":"27001","district":"1","name":"State Senate District 1"}},{"type":"Feature","geometry":{"type":"Polygon","coordinates":[[[-93.768,44.891],[-93.523,44.891],[-93.523,44.911],[-93.423,44.932],[-93.416,44.939],[-93.425,44.945],[-93.421,44.949],[-93.411,44.95],[-93.411,44.94],[-93.401,44.939],[-93.401,44.964],[-93.41,44.979],[-93.523,44.982],[-93.522,45.0],[-93.646,45.0],[-93.645,44.979],[-93.766,44.978],[-93.768,44.891]]]},"properties":{"SLDU":"045","NAME":"State Senate District 45","GEOID":"27045","district":"45","name":"State Senate District 45"}},{"type":"Feature","geometry":{"type":"Polygon","coordinates":[[[-96.068,47.485],[-96.066,46.977],[-95.297,46.978],[-95.297,47.152],[-95.046,47.153],[-95.046,47.239],[-94.977,47.24],[-94.684,47.237],[-94.684,47.152],[-94.664,47.143],[-94.664,46.977],[-94.029,46.977],[-94.03,47.153],[-93.902,47.151],[-93.902,47.238],[-93.807,47.237],[-93.799,47.222],[-93.798,47.237],[-93.774,47.237],[-93.774,47.254],[-93.703,47.257],[-93.698,47.294],[-93.708,47.326],[-93.767,47.327],[-93.76,47.323],[-93.774,47.325],[-93.774,47.314],[-93.8,47.321],[-93.801,47.411],[-93.774,47.411],[-93.774,47.673],[-94.418,47.672],[-94.43,48.701],[-94.452,48.692],[-94.539,48.703],[-94.549,48.715],[-94.588,48.718],[-94.619,48.737],[-94.641,48.741],[-94.652,48.756],[-94.691,48.778],[-94.704,48.824],[-94.686,48.84],[-94.692,48.869],[-94.684,48.872],[-94.683,48.884],[-94.75,49.099],[-94.773,49.121],[-94.798,49.198],[-94.797,49.214],[-94.826,49.294],[-94.816,49.321],[-94.854,49.324],[-94.957,49.37],[-95.058,49.353],[-95.129,49.37],[-95.153,49.384],[-95.153,48.999],[-95.32,48.999],[-95.327,48.982],[-95.318,48.953],[-95.305,48.948],[-95.323,48.94],[-95.316,48.924],[-95.296,48.908],[-95.301,48.904],[-95.255,48.884],[-95.148,48.892],[-95.091,48.921],[-95.09,48.713],[-95.343,48.713],[-95.343,48.54],[-95.602,48.539],[-95.602,48.365],[-95.593,48.365],[-95.592,48.021],[-95.583,48.021],[-95.579,47.674],[-95.553,47.674],[-95.554,47.5],[-96.068,47.499],[-96.068,47.485]]]},"properties":{"SLDU":"002","NAME":"State Senate District 2","GEOID":"27002","district":"2","name":"State Senate District 2"}},{"type":"Feature","geometry":{"type":"Polygon","coordinates":[[[-94.43,48.512],[-94.425,48.049],[-94.424,48.02],[-94.418,48.02],[-94.418,47.672],[-93.774,47.673],[-93.774,47.544],[-93.278,47.544],[-93.28,47.457],[-93.069,47.458],[-93.061,47.72],[-93.082,47.721],[-93.084,47.806],[-92.439,47.802],[-92.438,47.715],[-92.183,47.714],[-92.175,47.285],[-92.303,47.285],[-92.303,47.111],[-92.428,47.111],[-92.428,46.765],[-92.302,46.764],[-92.301,46.667],[-92.287,46.667],[-92.271,46.651],[-92.257,46.659],[-92.242,46.649],[-92.226,46.653],[-92.226,46.67],[-92.236,46.676],[-92.255,46.672],[-92.269,46.691],[-92.259,46.69],[-92.254,46.71],[-92.238,46.706],[-92.238,46.721],[-92.217,46.721],[-92.212,46.757],[-92.217,46.764],[-92.175,46.764],[-92.175,46.837],[-92.189,46.83],[-92.196,46.831],[-92.192,46.837],[-92.212,46.837],[-92.201,46.851],[-92.212,46.862],[-92.196,46.862],[-92.196,46.851],[-92.176,46.851],[-92.175,46.866],[-92.161,46.866],[-92.156,46.862],[-92.164,46.851],[-92.09,46.851],[-92.09,46.866],[-92.059,46.866],[-92.059,46.876],[-92.048,46.877],[-92.048,46.866],[-91.974,46.866],[-91.963,46.88],[-91.921,46.881],[-91.92,46.871],[-91.839,46.915],[-91.816,46.915],[-91.795,46.929],[-91.796,46.795],[-91.5,46.913],[-90.655,47.31],[-89.957,47.291],[-89.483,48.014],[-89.581,47.996],[-89.608,48.007],[-89.611,48.018],[-89.651,48.004],[-89.662,48.011],[-89.716,48.009],[-89.724,48.021],[-89.775,48.023],[-89.82,48.016],[-89.831,48.0],[-89.845,48.003],[-89.847,47.993],[-89.895,47.987],[-89.922,47.997],[-89.935,48.016],[-89.953,48.011],[-89.994,48.028],[-89.998,48.058],[-90.015,48.067],[-90.023,48.085],[-90.141,48.113],[-90.289,48.099],[-90.31,48.106],[-90.374,48.091],[-90.403,48.105],[-90.438,48.099],[-90.467,48.109],[-90.487,48.099],[-90.557,48.096],[-90.57,48.107],[-90.556,48.117],[-90.559,48.122],[-90.58,48.124],[-90.641,48.104],[-90.752,48.091],[-90.769,48.117],[-90.79,48.13],[-90.782,48.136],[-90.798,48.137],[-90.778,48.148],[-90.778,48.164],[-90.796,48.159],[-90.804,48.178],[-90.821,48.185],[-90.825,48.177],[-90.836,48.177],[-90.839,48.24],[-90.848,48.245],[-90.875,48.238],[-90.886,48.246],[-90.915,48.231],[-90.977,48.22],[-91.024,48.19],[-91.082,48.181],[-91.143,48.155],[-91.137,48.149],[-91.267,48.079],[-91.371,48.07],[-91.391,48.057],[-91.43,48.049],[-91.439,48.05],[-91.45,48.069],[-91.488,48.068],[-91.568,48.044],[-91.575,48.049],[-91.575,48.067],[-91.569,48.094],[-91.553,48.103],[-91.559,48.109],[-91.64,48.097],[-91.652,48.114],[-91.665,48.107],[-91.688,48.112],[-91.682,48.123],[-91.712,48.115],[-91.698,48.142],[-91.708,48.153],[-91.705,48.171],[-91.724,48.171],[-91.71,48.193],[-91.715,48.2],[-91.742,48.205],[-91.748,48.199],[-91.756,48.206],[-91.789,48.196],[-91.815,48.212],[-91.864,48.207],[-91.868,48.219],[-91.893,48.238],[-91.958,48.233],[-91.958,48.244],[-91.948,48.246],[-91.954,48.252],[-91.97,48.254],[-91.976,48.244],[-91.989,48.26],[-92.007,48.265],[-92.013,48.297],[-92.0,48.321],[-92.047,48.335],[-92.045,48.346],[-92.055,48.359],[-92.144,48.356],[-92.145,48.366],[-92.217,48.345],[-92.263,48.355],[-92.289,48.343],[-92.306,48.316],[-92.295,48.306],[-92.301,48.288],[-92.295,48.271],[-92.27,48.248],[-92.337,48.236],[-92.37,48.22],[-92.416,48.295],[-92.437,48.309],[-92.47,48.352],[-92.477,48.372],[-92.456,48.401],[-92.456,48.414],[-92.475,48.419],[-92.507,48.448],[-92.656,48.436],[-92.688,48.444],[-92.713,48.463],[-92.699,48.495],[-92.627,48.503],[-92.635,48.543],[-92.728,48.539],[-92.95,48.608],[-92.955,48.632],[-92.985,48.624],[-93.178,48.623],[-93.208,48.643],[-93.255,48.643],[-93.349,48.626],[-93.353,48.613],[-93.371,48.606],[-93.406,48.61],[-93.44,48.594],[-93.465,48.592],[-93.458,48.56],[-93.467,48.546],[-93.612,48.522],[-93.628,48.532],[-93.659,48.516],[-93.788,48.516],[-93.818,48.531],[-93.806,48.58],[-93.833,48.626],[-93.844,48.63],[-94.224,48.649],[-94.251,48.657],[-94.253,48.686],[-94.283,48.706],[-94.416,48.711],[-94.43,48.701],[-94.43,48.512]]]},"properties":{"SLDU":"003","NAME":"State Senate District 3","GEOID":"27003","district":"3","name":"State Senate District 3"}},{"type":"Feature","geometry":{"type":"Polygon","coordinates":[[[-96.84,47.15],[-96.829,47.146],[-96.835,47.144],[-96.826,47.135],[-96.83,47.129],[-96.821,47.13],[-96.838,47.122],[-96.816,47.108],[-96.817,47.092],[-96.826,47.089],[-96.816,47.088],[-96.816,47.079],[-96.829,47.075],[-96.82,47.075],[-96.82,47.062],[-96.83,47.061],[-96.818,47.052],[-96.828,47.046],[-96.818,47.047],[-96.823,47.037],[-96.813,47.039],[-96.827,47.032],[-96.815,47.024],[-96.83,47.022],[-96.84,47.007],[-96.821,47.003],[-96.823,46.97],[-96.795,46.966],[-96.804,46.947],[-96.792,46.946],[-96.792,46.928],[-96.777,46.926],[-96.762,46.935],[-96.756,46.929],[-96.765,46.927],[-96.753,46.924],[-96.763,46.924],[-96.755,46.914],[-96.776,46.898],[-96.769,46.878],[-96.781,46.88],[-96.776,46.874],[-96.784,46.862],[-96.776,46.855],[-96.785,46.853],[-96.774,46.852],[-96.782,46.846],[-96.775,46.84],[-96.787,46.841],[-96.784,46.833],[-96.794,46.833],[-96.78,46.825],[-96.792,46.827],[-96.803,46.812],[-96.796,46.808],[-96.803,46.806],[-96.796,46.801],[-96.802,46.797],[-96.787,46.786],[-96.797,46.777],[-96.784,46.778],[-96.789,46.771],[-96.775,46.767],[-96.79,46.766],[-96.778,46.762],[-96.79,46.757],[-96.783,46.754],[-96.789,46.752],[-96.78,46.745],[-96.787,46.743],[-96.78,46.742],[-96.779,46.727],[-96.791,46.719],[-96.782,46.717],[-96.791,46.704],[-96.784,46.701],[-96.791,46.689],[-96.784,46.685],[-96.795,46.683],[-96.788,46.677],[-96.799,46.679],[-96.791,46.672],[-96.802,46.668],[-96.795,46.666],[-96.799,46.654],[-96.786,46.641],[-96.797,46.629],[-96.172,46.631],[-96.175,46.718],[-95.795,46.717],[-95.794,46.977],[-96.066,46.977],[-96.067,47.152],[-96.195,47.151],[-96.197,47.064],[-96.563,47.064],[-96.564,47.151],[-96.84,47.15]]]},"properties":{"SLDU":"004","NAME":"State Senate District 4","GEOID":"27004","district":"4","name":"State Senate District 4"}},{"type":"Feature","geometry":{"type":"Polygon","coordinates":[[[-93.915,44.885],[-93.888,44.877],[-93.889,44.717],[-93.768,44.717],[-93.768,44.804],[-93.642,44.805],[-93.643,44.777],[-93.602,44.776],[-93.594,44.776],[-93.599,44.783],[-93.582,44.782],[-93.577,44.795],[-93.52,44.805],[-93.521,44.892],[-93.875,44.895],[-93.915,44.885]]]},"properties":{"SLDU":"048","NAME":"State Senate District 48","GEOID":"27048","district":"48","name":"State Senate District 48"}},{"type":"Feature","geometry":{"type":"Polygon","coordinates":[[[-95.796,46.799],[-95.796,46.775],[-95.79,46.774],[-95.795,46.717],[-95.164,46.718],[-95.163,46.63],[-95.156,46.63],[-95.154,46.282],[-95.146,46.282],[-95.14,45.773],[-94.644,45.774],[-94.648,46.194],[-94.38,46.194],[-94.395,46.209],[-94.394,46.23],[-94.355,46.255],[-94.355,46.264],[-94.339,46.271],[-94.341,46.283],[-94.333,46.28],[-94.327,46.29],[-94.331,46.631],[-94.345,46.631],[-94.343,46.806],[-94.408,46.806],[-94.406,46.98],[-94.664,46.977],[-94.664,47.143],[-94.684,47.152],[-94.684,47.237],[-95.046,47.239],[-95.046,47.153],[-95.297,47.152],[-95.297,46.978],[-95.794,46.977],[-95.796,46.799]]]},"properties":{"SLDU":"005","NAME":"State Senate District 5","GEOID":"27005","district":"5","name":"State Senate District 5"}},{"type":"Feature","geometry":{"type":"Polygon","coordinates":[[[-93.523,44.891],[-93.52,44.802],[-93.498,44.81],[-93.451,44.803],[-93.438,44.813],[-93.399,44.799],[-93.401,44.906],[-93.422,44.906],[-93.426,44.932],[-93.523,44.911],[-93.523,44.891]]]},"properties":{"SLDU":"049","NAME":"State Senate District 49","GEOID":"27049","district":"49","name":"State Senate District 49"}},{"type":"Feature","geometry":{"type":"Polygon","coordinates":[[[-94.408,46.81],[-94.343,46.806],[-94.345,46.631],[-94.331,46.631],[-94.327,46.29],[-94.314,46.296],[-94.314,46.244],[-94.189,46.244],[-94.189,46.324],[-94.178,46.323],[-94.181,46.331],[-93.937,46.33],[-93.937,46.243],[-93.796,46.243],[-93.811,46.253],[-93.811,46.584],[-93.778,46.59],[-93.775,47.03],[-93.444,47.028],[-93.449,47.196],[-93.468,47.196],[-93.483,47.209],[-93.485,47.22],[-93.475,47.222],[-93.488,47.25],[-93.483,47.264],[-93.498,47.282],[-93.702,47.282],[-93.703,47.257],[-93.774,47.254],[-93.774,47.237],[-93.798,47.237],[-93.799,47.222],[-93.807,47.237],[-93.902,47.238],[-93.902,47.151],[-94.03,47.153],[-94.029,46.977],[-94.406,46.98],[-94.408,46.81]]]},"properties":{"SLDU":"006","NAME":"State Senate District 6","GEOID":"27006","district":"6","name":"State Senate District 6"}},{"type":"Feature","geometry":{"type":"Polygon","coordinates":[[[-93.164,45.14],[-93.153,45.124],[-93.107,45.124],[-93.107,45.112],[-93.127,45.108],[-93.127,45.101],[-93.117,45.079],[-93.107,45.079],[-93.106,45.043],[-93.087,45.043],[-93.087,45.036],[-92.985,45.034],[-92.985,45.054],[-92.97,45.054],[-92.985,45.066],[-92.985,45.124],[-93.021,45.124],[-93.02,45.211],[-93.142,45.211],[-93.143,45.153],[-93.163,45.153],[-93.164,45.14]]]},"properties":{"SLDU":"036","NAME":"State Senate District 36","GEOID":"27036","district":"36","name":"State Senate District 36"}},{"type":"Feature","geometry":{"type":"Polygon","coordinates":[[[-93.208,44.956],[-93.2,44.942],[-93.2,44.91],[-93.176,44.887],[-93.136,44.906],[-93.117,44.924],[-93.116,44.934],[-93.127,44.934],[-93.104,44.947],[-93.208,44.956]]]},"properties":{"SLDU":"064","NAME":"State Senate District 64","GEOID":"27064","district":"64","name":"State Senate District 64"}},{"type":"Feature","geometry":{"type":"Polygon","coordinates":[[[-93.167,44.963],[-93.167,44.951],[-93.157,44.947],[-93.105,44.948],[-93.127,44.934],[-93.116,44.931],[-93.129,44.92],[-93.106,44.92],[-93.106,44.905],[-93.076,44.905],[-93.065,44.92],[-93.05,44.92],[-93.052,44.939],[-93.077,44.952],[-93.076,44.965],[-93.089,44.967],[-93.089,44.977],[-93.12,44.977],[-93.121,44.968],[-93.167,44.963]]]},"properties":{"SLDU":"065","NAME":"State Senate District 65","GEOID":"27065","district":"65","name":"State Senate District 65"}},{"type":"Feature","geometry":{"type":"Polygon","coordinates":[[[-93.426,45.215],[-93.412,45.198],[-93.359,45.175],[-93.299,45.129],[-93.274,45.152],[-93.267,45.143],[-93.266,45.233],[-93.306,45.234],[-93.306,45.219],[-93.358,45.212],[-93.358,45.219],[-93.39,45.241],[-93.396,45.233],[-93.39,45.223],[-93.42,45.227],[-93.426,45.215]]]},"properties":{"SLDU":"035","NAME":"State Senate District 35","GEOID":"27035","district":"35","name":"State Senate District 35"}},{"type":"Feature","geometry":{"type":"Polygon","coordinates":[[[-93.329,44.941],[-93.329,44.905],[-93.309,44.894],[-93.304,44.905],[-93.288,44.905],[-93.288,44.965],[-93.253,44.97],[-93.276,44.982],[-93.329,44.977],[-93.329,44.941]]]},"properties":{"SLDU":"061","NAME":"State Senate District 61","GEOID":"27061","district":"61","name":"State Senate District 61"}},{"type":"Feature","geometry":{"type":"Polygon","coordinates":[[[-93.523,45.036],[-93.523,44.982],[-93.421,44.979],[-93.417,44.993],[-93.403,44.999],[-93.411,45.008],[-93.401,45.007],[-93.401,45.066],[-93.482,45.066],[-93.481,45.084],[-93.52,45.081],[-93.523,45.036]]]},"properties":{"SLDU":"042","NAME":"State Senate District 42","GEOID":"27042","district":"42","name":"State Senate District 42"}},{"type":"Feature","geometry":{"type":"Polygon","coordinates":[[[-93.323,45.041],[-93.319,44.981],[-93.276,44.982],[-93.253,44.97],[-93.247,44.976],[-93.25,44.993],[-93.268,44.989],[-93.276,44.997],[-93.282,45.051],[-93.319,45.051],[-93.323,45.041]]]},"properties":{"SLDU":"059","NAME":"State Senate District 59","GEOID":"27059","district":"59","name":"State Senate District 59"}},{"type":"Feature","geometry":{"type":"Polygon","coordinates":[[[-93.267,45.128],[-93.153,45.124],[-93.163,45.153],[-93.143,45.153],[-93.142,45.211],[-93.02,45.211],[-93.019,45.326],[-93.143,45.326],[-93.142,45.285],[-93.152,45.282],[-93.152,45.265],[-93.234,45.266],[-93.235,45.237],[-93.266,45.233],[-93.267,45.128]]]},"properties":{"SLDU":"032","NAME":"State Senate District 32","GEOID":"27032","district":"32","name":"State Senate District 32"}},{"type":"Feature","geometry":{"type":"Polygon","coordinates":[[[-93.39,45.939],[-93.389,45.731],[-93.142,45.731],[-93.142,45.644],[-92.888,45.644],[-92.869,45.718],[-92.81,45.744],[-92.785,45.764],[-92.776,45.79],[-92.758,45.807],[-92.765,45.83],[-92.74,45.846],[-92.738,45.862],[-92.713,45.892],[-92.677,45.906],[-92.66,45.923],[-92.639,45.925],[-92.639,45.934],[-92.552,45.952],[-92.55,45.968],[-92.527,45.983],[-92.47,45.974],[-92.442,46.016],[-92.429,46.024],[-92.35,46.016],[-92.333,46.063],[-92.294,46.074],[-92.292,46.634],[-92.292,46.664],[-92.301,46.667],[-92.302,46.764],[-92.428,46.765],[-92.428,46.851],[-92.555,46.853],[-92.555,46.94],[-92.68,46.942],[-92.806,46.939],[-92.808,46.766],[-93.062,46.767],[-93.054,46.158],[-93.179,46.159],[-93.181,45.981],[-93.389,45.982],[-93.39,45.939]]]},"properties":{"SLDU":"011","NAME":"State Senate District 11","GEOID":"27011","district":"11","name":"State Senate District 11"}},{"type":"Feature","geometry":{"type":"Polygon","coordinates":[[[-93.208,44.96],[-93.167,44.952],[-93.167,44.963],[-93.121,44.968],[-93.12,44.977],[-93.089,44.977],[-93.089,44.967],[-93.076,44.965],[-93.066,44.97],[-93.066,44.992],[-93.141,44.992],[-93.136,45.006],[-93.147,45.01],[-93.2,45.01],[-93.208,45.006],[-93.208,44.96]]]},"properties":{"SLDU":"066","NAME":"State Senate District 66","GEOID":"27066","district":"66","name":"State Senate District 66"}},{"type":"Feature","geometry":{"type":"Polygon","coordinates":[[[-96.857,45.606],[-96.835,45.586],[-96.253,45.586],[-96.254,45.76],[-95.51,45.759],[-95.51,45.933],[-95.395,45.934],[-95.395,45.951],[-95.417,45.953],[-95.406,45.967],[-95.416,45.978],[-95.396,45.977],[-95.395,46.02],[-95.271,46.02],[-95.272,46.108],[-95.146,46.107],[-95.146,46.282],[-95.154,46.282],[-95.155,46.311],[-95.156,46.63],[-95.163,46.63],[-95.164,46.718],[-96.175,46.718],[-96.172,46.631],[-96.785,46.63],[-96.791,46.625],[-96.778,46.625],[-96.787,46.619],[-96.771,46.615],[-96.779,46.607],[-96.768,46.606],[-96.772,46.596],[-96.756,46.595],[-96.763,46.589],[-96.751,46.586],[-96.761,46.582],[-96.747,46.582],[-96.757,46.578],[-96.747,46.576],[-96.753,46.571],[-96.742,46.564],[-96.754,46.557],[-96.741,46.547],[-96.751,46.544],[-96.739,46.543],[-96.75,46.541],[-96.738,46.539],[-96.746,46.535],[-96.745,46.525],[-96.737,46.524],[-96.745,46.52],[-96.734,46.512],[-96.74,46.511],[-96.733,46.503],[-96.742,46.5],[-96.733,46.497],[-96.739,46.479],[-96.715,46.472],[-96.723,46.467],[-96.712,46.46],[-96.718,46.454],[-96.713,46.45],[-96.722,46.449],[-96.713,46.449],[-96.712,46.441],[-96.722,46.44],[-96.703,46.437],[-96.708,46.43],[-96.699,46.426],[-96.705,46.418],[-96.693,46.422],[-96.692,46.416],[-96.702,46.415],[-96.685,46.414],[-96.689,46.407],[-96.681,46.407],[-96.675,46.391],[-96.668,46.391],[-96.667,46.376],[-96.643,46.362],[-96.645,46.351],[-96.629,46.354],[-96.617,46.347],[-96.62,46.34],[-96.599,46.33],[-96.606,46.327],[-96.597,46.317],[-96.604,46.303],[-96.597,46.298],[-96.606,46.294],[-96.595,46.286],[-96.6,46.262],[-96.584,46.25],[-96.599,46.242],[-96.591,46.209],[-96.584,46.208],[-96.593,46.175],[-96.577,46.174],[-96.584,46.171],[-96.575,46.169],[-96.58,46.151],[-96.569,46.133],[-96.572,46.125],[-96.56,46.117],[-96.567,46.115],[-96.554,46.084],[-96.559,46.059],[-96.578,46.027],[-96.57,45.964],[-96.561,45.946],[-96.584,45.819],[-96.628,45.786],[-96.663,45.739],[-96.839,45.648],[-96.857,45.606]]]},"properties":{"SLDU":"009","NAME":"State Senate District 9","GEOID":"27009","district":"9","name":"State Senate District 9"}},{"type":"Feature","geometry":{"type":"Polygon","coordinates":[[[-93.4,44.891],[-93.399,44.799],[-93.385,44.797],[-93.38,44.785],[-93.335,44.787],[-93.327,44.805],[-93.309,44.819],[-93.309,44.862],[-93.319,44.862],[-93.319,44.905],[-93.329,44.905],[-93.329,44.931],[-93.35,44.92],[-93.35,44.89],[-93.4,44.891]]]},"properties":{"SLDU":"050","NAME":"State Senate District 50","GEOID":"27050","district":"50","name":"State Senate District 50"}},{"type":"Feature","geometry":{"type":"Polygon","coordinates":[[[-93.332,44.797],[-93.33,44.791],[-93.305,44.795],[-93.252,44.811],[-93.221,44.831],[-93.222,44.838],[-93.211,44.84],[-93.198,44.858],[-93.2,44.866],[-93.179,44.88],[-93.183,44.886],[-93.177,44.894],[-93.208,44.905],[-93.258,44.9],[-93.258,44.891],[-93.319,44.891],[-93.319,44.862],[-93.309,44.862],[-93.309,44.819],[-93.332,44.797]]]},"properties":{"SLDU":"051","NAME":"State Senate District 51","GEOID":"27051","district":"51","name":"State Senate District 51"}},{"type":"Feature","geometry":{"type":"Polygon","coordinates":[[[-93.29,44.8],[-93.288,44.782],[-93.266,44.79],[-93.258,44.79],[-93.258,44.784],[-93.248,44.787],[-93.248,44.759],[-93.223,44.776],[-93.187,44.776],[-93.171,44.79],[-93.106,44.79],[-93.106,44.898],[-93.126,44.898],[-93.126,44.909],[-93.144,44.894],[-93.182,44.887],[-93.179,44.88],[-93.2,44.866],[-93.198,44.858],[-93.211,44.84],[-93.222,44.838],[-93.221,44.831],[-93.252,44.811],[-93.29,44.8]]]},"properties":{"SLDU":"052","NAME":"State Senate District 52","GEOID":"27052","district":"52","name":"State Senate District 52"}},{"type":"Feature","geometry":{"type":"Polygon","coordinates":[[[-93.153,44.894],[-93.126,44.909],[-93.126,44.898],[-93.106,44.898],[-93.106,44.776],[-93.016,44.776],[-93.021,44.79],[-92.979,44.796],[-92.984,44.816],[-92.971,44.801],[-92.965,44.801],[-92.965,44.812],[-92.936,44.81],[-92.935,44.815],[-92.984,44.847],[-92.984,44.887],[-92.974,44.883],[-92.98,44.895],[-93.02,44.891],[-93.052,44.92],[-93.065,44.92],[-93.076,44.905],[-93.106,44.905],[-93.107,44.92],[-93.129,44.92],[-93.153,44.894]]]},"properties":{"SLDU":"053","NAME":"State Senate District 53","GEOID":"27053","district":"53","name":"State Senate District 53"}},{"type":"Feature","geometry":{"type":"Polygon","coordinates":[[[-94.649,45.934],[-94.644,45.932],[-94.644,45.774],[-94.272,45.775],[-94.26,45.742],[-94.215,45.726],[-94.224,45.712],[-94.211,45.702],[-94.203,45.678],[-94.183,45.68],[-94.197,45.671],[-94.204,45.647],[-94.009,45.647],[-94.007,45.559],[-93.759,45.56],[-93.761,45.649],[-93.389,45.644],[-93.389,45.982],[-93.181,45.981],[-93.179,46.159],[-93.054,46.158],[-93.055,46.593],[-93.778,46.595],[-93.778,46.589],[-93.811,46.584],[-93.811,46.253],[-93.796,46.243],[-93.937,46.243],[-93.937,46.33],[-94.181,46.331],[-94.178,46.323],[-94.189,46.324],[-94.189,46.244],[-94.314,46.244],[-94.319,46.298],[-94.333,46.28],[-94.341,46.283],[-94.339,46.271],[-94.355,46.264],[-94.355,46.255],[-94.389,46.238],[-94.396,46.212],[-94.38,46.194],[-94.648,46.194],[-94.649,45.934]]]},"properties":{"SLDU":"010","NAME":"State Senate District 10","GEOID":"27010","district":"10","name":"State Senate District 10"}},{"type":"Feature","geometry":{"type":"Polygon","coordinates":[[[-93.655,44.675],[-93.644,44.674],[-93.644,44.652],[-93.655,44.652],[-93.654,44.645],[-93.644,44.644],[-93.644,44.631],[-93.4,44.631],[-93.399,44.728],[-93.38,44.746],[-93.399,44.747],[-93.399,44.798],[-93.412,44.807],[-93.438,44.813],[-93.455,44.803],[-93.498,44.81],[-93.52,44.802],[-93.54,44.805],[-93.547,44.796],[-93.579,44.794],[-93.582,44.782],[-93.599,44.783],[-93.596,44.773],[-93.622,44.763],[-93.609,44.754],[-93.621,44.754],[-93.633,44.724],[-93.618,44.708],[-93.644,44.693],[-93.644,44.682],[-93.654,44.682],[-93.655,44.675]]]},"properties":{"SLDU":"054","NAME":"State Senate District 54","GEOID":"27054","district":"54","name":"State Senate District 54"}},{"type":"Feature","geometry":{"type":"Polygon","coordinates":[[[-96.835,45.586],[-96.763,45.52],[-96.733,45.459],[-96.69,45.415],[-96.62,45.409],[-96.522,45.376],[-96.489,45.357],[-96.453,45.301],[-96.453,45.269],[-96.419,45.268],[-96.407,45.256],[-96.376,45.261],[-96.284,45.247],[-96.289,45.238],[-96.275,45.223],[-96.224,45.221],[-96.173,45.193],[-96.132,45.192],[-96.089,45.167],[-96.037,45.152],[-95.246,45.152],[-95.246,45.239],[-95.255,45.239],[-95.255,45.413],[-94.64,45.413],[-94.64,45.426],[-94.645,45.427],[-94.639,45.577],[-94.644,45.774],[-95.14,45.773],[-95.146,46.107],[-95.272,46.108],[-95.271,46.02],[-95.395,46.02],[-95.396,45.977],[-95.416,45.978],[-95.406,45.967],[-95.417,45.953],[-95.395,45.951],[-95.395,45.934],[-95.51,45.933],[-95.51,45.759],[-96.254,45.76],[-96.253,45.586],[-96.835,45.586]]]},"properties":{"SLDU":"012","NAME":"State Senate District 12","GEOID":"27012","district":"12","name":"State Senate District 12"}},{"type":"Feature","geometry":{"type":"Polygon","coordinates":[[[-93.4,44.544],[-93.157,44.544],[-93.157,44.631],[-93.208,44.631],[-93.207,44.689],[-93.156,44.689],[-93.157,44.717],[-93.399,44.717],[-93.4,44.544]]]},"properties":{"SLDU":"057","NAME":"State Senate District 57","GEOID":"27057","district":"57","name":"State Senate District 57"}},{"type":"Feature","geometry":{"type":"Polygon","coordinates":[[[-94.319,45.567],[-94.316,45.549],[-94.298,45.537],[-94.31,45.53],[-94.26,45.499],[-94.261,45.414],[-94.138,45.413],[-94.138,45.456],[-94.107,45.452],[-94.1,45.467],[-94.142,45.493],[-94.139,45.516],[-94.154,45.534],[-94.12,45.53],[-94.124,45.536],[-94.11,45.536],[-94.11,45.542],[-94.088,45.523],[-94.048,45.523],[-94.043,45.534],[-94.048,45.559],[-94.007,45.559],[-94.009,45.647],[-94.134,45.647],[-94.134,45.619],[-94.122,45.618],[-94.117,45.609],[-94.133,45.607],[-94.133,45.6],[-94.122,45.603],[-94.12,45.587],[-94.127,45.596],[-94.135,45.574],[-94.166,45.574],[-94.178,45.59],[-94.258,45.59],[-94.26,45.555],[-94.319,45.567]]]},"properties":{"SLDU":"014","NAME":"State Senate District 14","GEOID":"27014","district":"14","name":"State Senate District 14"}},{"type":"Feature","geometry":{"type":"Polygon","coordinates":[[[-94.629,44.717],[-94.624,44.456],[-93.933,44.457],[-93.918,44.461],[-93.927,44.47],[-93.907,44.472],[-93.891,44.496],[-93.896,44.501],[-93.887,44.505],[-93.888,44.526],[-93.912,44.538],[-93.905,44.552],[-93.899,44.544],[-93.891,44.547],[-93.9,44.555],[-93.891,44.567],[-93.901,44.571],[-93.893,44.585],[-93.902,44.588],[-93.875,44.6],[-93.878,44.606],[-93.861,44.605],[-93.858,44.621],[-93.843,44.617],[-93.844,44.626],[-93.837,44.618],[-93.815,44.633],[-93.791,44.629],[-93.774,44.638],[-93.772,44.63],[-93.764,44.634],[-93.77,44.64],[-93.755,44.636],[-93.759,44.644],[-93.718,44.655],[-93.721,44.664],[-93.698,44.67],[-93.675,44.693],[-93.629,44.698],[-93.618,44.708],[-93.633,44.724],[-93.631,44.739],[-93.621,44.754],[-93.608,44.754],[-93.622,44.762],[-93.594,44.776],[-93.643,44.777],[-93.642,44.805],[-93.768,44.804],[-93.768,44.717],[-93.889,44.717],[-93.888,44.877],[-93.914,44.886],[-93.875,44.895],[-93.768,44.891],[-93.768,44.978],[-94.134,44.979],[-94.135,45.152],[-94.379,45.152],[-94.378,45.238],[-94.501,45.239],[-94.503,45.127],[-94.488,45.121],[-94.502,45.121],[-94.498,44.717],[-94.629,44.717]]]},"properties":{"SLDU":"017","NAME":"State Senate District 17","GEOID":"27017","district":"17","name":"State Senate District 17"}},{"type":"Feature","geometry":{"type":"Polygon","coordinates":[[[-93.801,47.411],[-93.796,47.318],[-93.774,47.314],[-93.774,47.325],[-93.76,47.323],[-93.766,47.327],[-93.708,47.326],[-93.698,47.294],[-93.702,47.282],[-93.498,47.282],[-93.483,47.264],[-93.488,47.25],[-93.475,47.222],[-93.485,47.22],[-93.483,47.209],[-93.468,47.196],[-93.449,47.196],[-93.444,47.075],[-93.444,47.028],[-93.775,47.03],[-93.778,46.595],[-93.063,46.593],[-93.062,46.767],[-92.808,46.766],[-92.806,46.939],[-92.555,46.94],[-92.555,46.853],[-92.428,46.851],[-92.428,47.111],[-92.303,47.111],[-92.303,47.285],[-92.175,47.285],[-92.183,47.714],[-92.438,47.715],[-92.439,47.802],[-93.084,47.806],[-93.082,47.721],[-93.061,47.72],[-93.069,47.458],[-93.28,47.457],[-93.278,47.544],[-93.774,47.544],[-93.774,47.411],[-93.801,47.411]]]},"properties":{"SLDU":"007","NAME":"State Senate District 7","GEOID":"27007","district":"7","name":"State Senate District 7"}},{"type":"Feature","geometry":{"type":"Polygon","coordinates":[[[-93.768,44.08],[-93.768,44.022],[-93.046,44.023],[-93.046,44.197],[-92.791,44.197],[-92.791,44.291],[-92.767,44.302],[-92.791,44.312],[-92.791,44.37],[-93.525,44.37],[-93.525,44.196],[-93.768,44.196],[-93.768,44.08]]]},"properties":{"SLDU":"019","NAME":"State Senate District 19","GEOID":"27019","district":"19","name":"State Senate District 19"}},{"type":"Feature","geometry":{"type":"Polygon","coordinates":[[[-93.283,45.035],[-93.274,44.993],[-93.25,44.991],[-93.251,44.98],[-93.245,44.979],[-93.257,44.966],[-93.221,44.967],[-93.208,44.96],[-93.208,45.006],[-93.227,45.013],[-93.227,45.036],[-93.283,45.035]]]},"properties":{"SLDU":"060","NAME":"State Senate District 60","GEOID":"27060","district":"60","name":"State Senate District 60"}},{"type":"Feature","geometry":{"type":"Polygon","coordinates":[[[-93.319,44.891],[-93.258,44.891],[-93.258,44.9],[-93.194,44.905],[-93.2,44.91],[-93.208,44.96],[-93.221,44.967],[-93.252,44.966],[-93.238,44.948],[-93.247,44.948],[-93.247,44.918],[-93.288,44.92],[-93.288,44.905],[-93.304,44.905],[-93.304,44.898],[-93.319,44.891]]]},"properties":{"SLDU":"063","NAME":"State Senate District 63","GEOID":"27063","district":"63","name":"State Senate District 63"}},{"type":"Feature","geometry":{"type":"Polygon","coordinates":[[[-92.921,44.513],[-92.919,44.371],[-92.791,44.37],[-92.791,44.312],[-92.767,44.298],[-92.786,44.298],[-92.781,44.291],[-92.791,44.291],[-92.791,44.197],[-92.679,44.196],[-92.678,44.108],[-92.558,44.108],[-92.558,44.174],[-92.543,44.177],[-92.559,44.175],[-92.562,44.181],[-92.548,44.181],[-92.556,44.188],[-92.541,44.195],[-92.438,44.195],[-92.439,44.108],[-92.319,44.108],[-92.319,44.021],[-92.399,44.021],[-92.389,44.01],[-92.399,44.007],[-92.399,43.985],[-92.391,43.973],[-92.404,43.982],[-92.419,43.974],[-92.429,43.975],[-92.429,43.982],[-92.439,43.978],[-92.438,43.848],[-91.959,43.847],[-91.959,43.97],[-91.939,43.97],[-91.94,43.984],[-91.959,43.984],[-91.959,44.02],[-91.839,44.02],[-91.839,44.182],[-91.875,44.201],[-91.893,44.231],[-91.887,44.252],[-91.896,44.275],[-91.925,44.292],[-91.914,44.311],[-91.926,44.334],[-91.97,44.366],[-92.038,44.389],[-92.056,44.403],[-92.231,44.444],[-92.291,44.485],[-92.314,44.538],[-92.333,44.553],[-92.416,44.561],[-92.439,44.553],[-92.519,44.575],[-92.547,44.568],[-92.568,44.603],[-92.586,44.6],[-92.602,44.612],[-92.62,44.614],[-92.622,44.639],[-92.632,44.649],[-92.661,44.661],[-92.732,44.714],[-92.732,44.629],[-92.914,44.63],[-92.914,44.543],[-92.919,44.543],[-92.921,44.513]]]},"properties":{"SLDU":"020","NAME":"State Senate District 20","GEOID":"27020","district":"20","name":"State Senate District 20"}},{"type":"Feature","geometry":{"type":"Polygon","coordinates":[[[-96.454,43.906],[-96.453,43.5],[-94.859,43.501],[-94.855,43.675],[-94.615,43.677],[-94.619,43.968],[-94.609,43.972],[-94.62,43.978],[-94.608,43.977],[-94.612,43.986],[-94.601,43.993],[-94.619,43.991],[-94.62,44.109],[-95.1,44.108],[-95.101,44.195],[-96.079,44.197],[-96.08,44.543],[-96.093,44.544],[-96.093,44.63],[-96.452,44.631],[-96.454,43.906]]]},"properties":{"SLDU":"021","NAME":"State Senate District 21","GEOID":"27021","district":"21","name":"State Senate District 21"}},{"type":"Feature","geometry":{"type":"Polygon","coordinates":[[[-93.079,44.956],[-93.052,44.939],[-93.052,44.92],[-93.035,44.898],[-93.004,44.891],[-93.005,44.992],[-93.066,44.992],[-93.066,44.97],[-93.076,44.97],[-93.079,44.956]]]},"properties":{"SLDU":"067","NAME":"State Senate District 67","GEOID":"27067","district":"67","name":"State Senate District 67"}},{"type":"Feature","geometry":{"type":"Polygon","coordinates":[[[-93.046,43.849],[-92.689,43.849],[-92.689,43.834],[-92.449,43.834],[-92.449,43.848],[-92.438,43.849],[-92.439,43.978],[-92.429,43.982],[-92.429,43.975],[-92.419,43.974],[-92.404,43.982],[-92.391,43.973],[-92.399,43.985],[-92.399,44.007],[-92.389,44.01],[-92.399,44.021],[-92.419,44.021],[-92.419,44.012],[-92.483,44.001],[-92.488,44.043],[-92.558,44.043],[-92.558,44.074],[-92.573,44.079],[-92.558,44.079],[-92.558,44.108],[-92.678,44.108],[-92.679,44.196],[-93.046,44.197],[-93.046,43.849]]]},"properties":{"SLDU":"024","NAME":"State Senate District 24","GEOID":"27024","district":"24","name":"State Senate District 24"}},{"type":"Feature","geometry":{"type":"Polygon","coordinates":[[[-92.57,43.75],[-92.57,43.711],[-92.559,43.71],[-92.56,43.703],[-92.57,43.701],[-92.569,43.5],[-91.218,43.501],[-91.218,43.514],[-91.243,43.54],[-91.232,43.582],[-91.269,43.617],[-91.262,43.642],[-91.273,43.667],[-91.268,43.71],[-91.244,43.775],[-91.262,43.792],[-91.278,43.838],[-91.311,43.867],[-91.319,43.887],[-91.339,43.899],[-91.367,43.937],[-91.407,43.965],[-91.437,44.0],[-91.592,44.031],[-91.61,44.049],[-91.648,44.064],[-91.682,44.097],[-91.707,44.104],[-91.719,44.129],[-91.802,44.157],[-91.839,44.182],[-91.839,44.02],[-91.959,44.02],[-91.959,43.984],[-91.94,43.984],[-91.939,43.97],[-91.959,43.97],[-91.959,43.847],[-92.449,43.848],[-92.449,43.834],[-92.57,43.834],[-92.57,43.75]]]},"properties":{"SLDU":"026","NAME":"State Senate District 26","GEOID":"27026","district":"26","name":"State Senate District 26"}},{"type":"Feature","geometry":{"type":"Polygon","coordinates":[[[-94.154,45.532],[-94.139,45.516],[-94.142,45.493],[-94.101,45.468],[-94.102,45.453],[-94.065,45.433],[-94.052,45.435],[-94.026,45.405],[-94.006,45.404],[-94.011,45.392],[-93.996,45.402],[-93.955,45.378],[-93.945,45.385],[-93.919,45.384],[-93.868,45.34],[-93.831,45.335],[-93.805,45.312],[-93.757,45.295],[-93.686,45.305],[-93.67,45.295],[-93.634,45.296],[-93.634,45.386],[-93.373,45.385],[-93.378,45.378],[-93.353,45.378],[-93.352,45.385],[-93.265,45.385],[-93.26,45.396],[-93.265,45.414],[-93.306,45.414],[-93.322,45.421],[-93.322,45.414],[-93.342,45.414],[-93.281,45.46],[-93.281,45.471],[-93.389,45.471],[-93.389,45.558],[-93.511,45.559],[-93.513,45.645],[-93.761,45.649],[-93.759,45.56],[-94.048,45.559],[-94.043,45.534],[-94.048,45.523],[-94.088,45.523],[-94.11,45.542],[-94.11,45.536],[-94.124,45.536],[-94.12,45.53],[-94.154,45.532]]]},"properties":{"SLDU":"027","NAME":"State Senate District 27","GEOID":"27027","district":"27","name":"State Senate District 27"}},{"type":"Feature","geometry":{"type":"Polygon","coordinates":[[[-93.513,45.645],[-93.511,45.559],[-93.389,45.558],[-93.389,45.471],[-93.142,45.471],[-93.142,45.414],[-93.02,45.412],[-93.019,45.297],[-92.746,45.296],[-92.705,45.327],[-92.699,45.336],[-92.703,45.358],[-92.65,45.399],[-92.647,45.44],[-92.653,45.455],[-92.68,45.464],[-92.727,45.514],[-92.727,45.542],[-92.773,45.568],[-92.823,45.561],[-92.881,45.573],[-92.887,45.644],[-93.142,45.644],[-93.142,45.731],[-93.389,45.731],[-93.389,45.644],[-93.513,45.645]]]},"properties":{"SLDU":"028","NAME":"State Senate District 28","GEOID":"27028","district":"28","name":"State Senate District 28"}},{"type":"Feature","geometry":{"type":"Polygon","coordinates":[[[-93.248,44.721],[-93.147,44.717],[-93.147,44.723],[-93.137,44.723],[-93.136,44.732],[-93.108,44.739],[-93.035,44.739],[-93.035,44.776],[-93.106,44.776],[-93.106,44.79],[-93.171,44.79],[-93.187,44.776],[-93.223,44.776],[-93.248,44.759],[-93.248,44.721]]]},"properties":{"SLDU":"056","NAME":"State Senate District 56","GEOID":"27056","district":"56","name":"State Senate District 56"}},{"type":"Feature","geometry":{"type":"Polygon","coordinates":[[[-94.855,43.574],[-94.855,43.501],[-94.128,43.5],[-94.128,43.587],[-94.008,43.587],[-94.006,43.848],[-93.768,43.848],[-93.768,44.196],[-93.525,44.196],[-93.525,44.37],[-93.403,44.371],[-93.402,44.457],[-93.525,44.457],[-93.524,44.544],[-93.646,44.544],[-93.644,44.644],[-93.654,44.645],[-93.655,44.652],[-93.644,44.652],[-93.644,44.674],[-93.655,44.674],[-93.654,44.682],[-93.644,44.682],[-93.647,44.696],[-93.675,44.693],[-93.698,44.67],[-93.721,44.664],[-93.718,44.655],[-93.759,44.644],[-93.755,44.636],[-93.77,44.64],[-93.764,44.634],[-93.772,44.63],[-93.774,44.638],[-93.791,44.629],[-93.803,44.635],[-93.837,44.618],[-93.844,44.626],[-93.843,44.617],[-93.858,44.621],[-93.854,44.618],[-93.861,44.605],[-93.878,44.606],[-93.875,44.6],[-93.903,44.587],[-93.893,44.585],[-93.901,44.571],[-93.891,44.567],[-93.9,44.555],[-93.891,44.547],[-93.899,44.544],[-93.905,44.552],[-93.912,44.538],[-93.888,44.526],[-93.887,44.505],[-93.896,44.501],[-93.891,44.496],[-93.907,44.472],[-93.927,44.47],[-93.917,44.462],[-93.937,44.455],[-93.929,44.443],[-93.94,44.413],[-93.954,44.41],[-93.95,44.393],[-93.966,44.39],[-93.952,44.386],[-93.963,44.383],[-93.955,44.375],[-93.962,44.364],[-93.953,44.366],[-93.956,44.358],[-93.933,44.345],[-93.945,44.339],[-93.96,44.307],[-93.955,44.29],[-93.947,44.29],[-93.955,44.29],[-93.959,44.273],[-93.959,44.239],[-93.889,44.239],[-93.889,44.171],[-93.869,44.178],[-93.873,44.147],[-93.889,44.152],[-93.889,44.138],[-93.954,44.145],[-93.959,44.133],[-93.979,44.138],[-93.989,44.123],[-94.019,44.123],[-94.029,44.139],[-94.046,44.132],[-94.039,44.137],[-94.043,44.146],[-94.033,44.148],[-94.035,44.157],[-94.085,44.161],[-94.104,44.17],[-94.1,44.175],[-94.114,44.173],[-94.111,44.18],[-94.129,44.185],[-94.128,44.109],[-94.181,44.109],[-94.179,44.123],[-94.226,44.123],[-94.229,44.141],[-94.242,44.141],[-94.249,44.141],[-94.25,44.108],[-94.62,44.109],[-94.619,43.991],[-94.601,43.993],[-94.612,43.986],[-94.608,43.977],[-94.62,43.978],[-94.609,43.972],[-94.619,43.968],[-94.615,43.677],[-94.855,43.675],[-94.855,43.574]]]},"properties":{"SLDU":"022","NAME":"State Senate District 22","GEOID":"27022","district":"22","name":"State Senate District 22"}},{"type":"Feature","geometry":{"type":"Polygon","coordinates":[[[-93.513,45.247],[-93.485,45.226],[-93.426,45.215],[-93.42,45.227],[-93.39,45.223],[-93.396,45.233],[-93.389,45.241],[-93.378,45.227],[-93.358,45.219],[-93.358,45.212],[-93.306,45.219],[-93.306,45.234],[-93.235,45.237],[-93.234,45.266],[-93.152,45.265],[-93.152,45.282],[-93.142,45.285],[-93.143,45.326],[-93.019,45.326],[-93.02,45.412],[-93.142,45.414],[-93.142,45.471],[-93.281,45.471],[-93.281,45.46],[-93.342,45.414],[-93.322,45.414],[-93.322,45.421],[-93.306,45.414],[-93.265,45.414],[-93.26,45.396],[-93.265,45.385],[-93.347,45.385],[-93.347,45.32],[-93.373,45.327],[-93.378,45.299],[-93.511,45.299],[-93.513,45.247]]]},"properties":{"SLDU":"031","NAME":"State Senate District 31","GEOID":"27031","district":"31","name":"State Senate District 31"}},{"type":"Feature","geometry":{"type":"Polygon","coordinates":[[[-93.296,45.122],[-93.278,45.103],[-93.283,45.035],[-93.227,45.036],[-93.227,45.013],[-93.208,45.006],[-93.208,45.036],[-93.188,45.036],[-93.183,45.05],[-93.186,45.067],[-93.218,45.064],[-93.219,45.075],[-93.227,45.075],[-93.228,45.111],[-93.221,45.112],[-93.228,45.125],[-93.296,45.122]]]},"properties":{"SLDU":"039","NAME":"State Senate District 39","GEOID":"27039","district":"39","name":"State Senate District 39"}},{"type":"Feature","geometry":{"type":"Polygon","coordinates":[[[-93.02,45.125],[-92.985,45.124],[-92.985,45.066],[-92.97,45.058],[-92.985,45.054],[-92.985,45.035],[-92.965,45.032],[-92.955,45.047],[-92.945,45.047],[-92.945,45.089],[-92.909,45.083],[-92.914,45.108],[-92.869,45.108],[-92.863,45.031],[-92.854,45.036],[-92.856,45.026],[-92.807,45.029],[-92.807,45.021],[-92.792,45.022],[-92.794,45.005],[-92.782,45.007],[-92.778,45.0],[-92.772,45.012],[-92.778,45.027],[-92.77,45.018],[-92.771,45.029],[-92.765,45.029],[-92.797,45.051],[-92.803,45.065],[-92.74,45.116],[-92.752,45.142],[-92.752,45.174],[-92.767,45.19],[-92.752,45.219],[-92.76,45.252],[-92.752,45.266],[-92.762,45.288],[-92.746,45.296],[-93.02,45.297],[-93.02,45.125]]]},"properties":{"SLDU":"033","NAME":"State Senate District 33","GEOID":"27033","district":"33","name":"State Senate District 33"}},{"type":"Feature","geometry":{"type":"Polygon","coordinates":[[[-93.891,45.109],[-93.863,45.091],[-93.855,45.076],[-93.84,45.076],[-93.835,45.085],[-93.79,45.089],[-93.792,45.098],[-93.766,45.091],[-93.777,45.097],[-93.762,45.093],[-93.766,45.107],[-93.752,45.094],[-93.743,45.097],[-93.746,45.104],[-93.728,45.105],[-93.682,45.151],[-93.676,45.145],[-93.636,45.145],[-93.63,45.174],[-93.651,45.183],[-93.657,45.198],[-93.638,45.21],[-93.628,45.202],[-93.625,45.21],[-93.605,45.213],[-93.597,45.207],[-93.593,45.218],[-93.57,45.219],[-93.543,45.233],[-93.527,45.223],[-93.522,45.247],[-93.512,45.246],[-93.511,45.299],[-93.378,45.299],[-93.373,45.327],[-93.347,45.32],[-93.347,45.385],[-93.353,45.378],[-93.378,45.378],[-93.373,45.385],[-93.634,45.386],[-93.634,45.296],[-93.67,45.295],[-93.686,45.305],[-93.704,45.298],[-93.705,45.267],[-93.715,45.267],[-93.704,45.26],[-93.704,45.238],[-93.766,45.238],[-93.766,45.151],[-93.864,45.151],[-93.874,45.138],[-93.874,45.144],[-93.89,45.151],[-93.891,45.109]]]},"properties":{"SLDU":"030","NAME":"State Senate District 30","GEOID":"27030","district":"30","name":"State Senate District 30"}}]}